[{"OBJECT_NAME":"STARLINK-35972","OBJECT_ID":"2025-271X","EPOCH":"2026-03-09T13:30:39.339648","MEAN_MOTION":15.30180455,"ECCENTRICITY":0.0001345,"INCLINATION":53.1577,"RA_OF_ASC_NODE":140.7783,"ARG_OF_PERICENTER":72.4079,"MEAN_ANOMALY":287.7068,"EPHEMERIS_TYPE":0,"CLASSIFICATION_TYPE":"U","NORAD_CAT_ID":66638,"ELEMENT_SET_NO":999,"REV_AT_EPOCH":1754,"BSTAR":0.0013219,"MEAN_MOTION_DOT":0.00038974,"MEAN_MOTION_DDOT":0},{"OBJECT_NAME":"COSMOS 249 DEB","OBJECT_ID":"1968-091DJ","EPOCH":"2026-03-09T22:59:41.072064","MEAN_MOTION":14.2447733,"ECCENTRICITY":0.04678273,"INCLINATION":62.7651,"RA_OF_ASC_NODE":269.2895,"ARG_OF_PERICENTER":43.0913,"MEAN_ANOMALY":320.579,"EPHEMERIS_TYPE":0,"CLASSIFICATION_TYPE":"U","NORAD_CAT_ID":19362,"ELEMENT_SET_NO":999,"REV_AT_EPOCH":90582,"BSTAR":0.0013749035,"MEAN_MOTION_DOT":0.00010099,"MEAN_MOTION_DDOT":0}]
